IRIDIUM 36              
1 24967U 97056C   24116.68221902  .00001188  00000+0  39644-3 0  9995
2 24967  86.3992 348.3422 0002020  87.0443 273.0985 14.36750491392258
IRIDIUM 39              
1 25042U 97069D   24116.83256934  .00002072  00000+0  55357-3 0  9996
2 25042  86.3966  29.9489 0015989 258.2092 101.7317 14.47878576388549
IRIDIUM 38              
1 25043U 97069E   24116.84554230  .00001719  00000+0  57155-3 0  9993
2 25043  86.3986  48.6449 0003574  60.6575 299.4979 14.37203128385993
IRIDIUM 42              
1 25077U 97077A   24116.90619186  .00001586  00000+0  54492-3 0  9991
2 25077  86.3980  54.2777 0002750  76.7090 283.4413 14.35508860381313
IRIDIUM 44              
1 25078U 97077B   24116.86680384  .00001664  00000+0  52962-3 0  9992
2 25078  86.3996  37.3421 0001906  33.6188 326.5131 14.39339260383656
IRIDIUM 45              
1 25104U 97082A   24116.87647123  .00024745  00000+0  14075-2 0  9990
2 25104  86.3739 246.7708 0164635  70.0891 291.7995 15.01865571389005
IRIDIUM 24              
1 25105U 97082B   24116.88072966  .00001843  00000+0  56612-3 0  9997
2 25105  86.3891 257.0071 0012143  25.9064 334.2741 14.41107064383094
IRIDIUM 51              
1 25262U 98018A   24116.83969884  .00023355  00000+0  11141-2 0  9999
2 25262  86.3963 256.7604 0149764  16.2280 344.3675 15.09480043383510
